[
    {
        "Altitude(m)": 571642.8281143928,
        "Argument of Periapsis(deg)": 0.026491964442854003,
        "Eccentricity": 0.0,
        "Inclination(deg)": 53.0,
        "Latitude(deg)": -52.62909669273577,
        "Longitude(deg)": -102.07253050244186,
        "Mean Anomaly(deg)": 276.73007147031035,
        "RAAN(deg)": 79.96057347411207,
        "Satellite Name": "Starlink Shell 1 366",
        "Satellite Number": 366,
        "Semi-Major Axis(m)": 6931778.249405717,
        "Time(s)": 760
    },
    {
        "Altitude(m)": 571603.8414258731,
        "Argument of Periapsis(deg)": 0.02684054292236524,
        "Eccentricity": 0.0,
        "Inclination(deg)": 53.0,
        "Latitude(deg)": -52.52859660050188,
        "Longitude(deg)": -101.10196434078439,
        "Mean Anomaly(deg)": 277.35690267386707,
        "RAAN(deg)": 79.96005470403459,
        "Satellite Name": "Starlink Shell 1 366",
        "Satellite Number": 366,
        "Semi-Major Axis(m)": 6931778.249405717,
        "Time(s)": 770
    },
    {
        "Altitude(m)": 571561.4695305222,
        "Argument of Periapsis(deg)": 0.027189121401876473,
        "Eccentricity": 0.0,
        "Inclination(deg)": 53.0,
        "Latitude(deg)": -52.4194890187608,
        "Longitude(deg)": -100.13619534529364,
        "Mean Anomaly(deg)": 277.98373387742384,
        "RAAN(deg)": 79.95953593395711,
        "Satellite Name": "Starlink Shell 1 366",
        "Satellite Number": 366,
        "Semi-Major Axis(m)": 6931778.249405717,
        "Time(s)": 780
    },
    {
        "Altitude(m)": 571515.7293081491,
        "Argument of Periapsis(deg)": 0.02753769988138771,
        "Eccentricity": 0.0,
        "Inclination(deg)": 53.0,
        "Latitude(deg)": -52.3018492863035,
        "Longitude(deg)": -99.17556945867103,
        "Mean Anomaly(deg)": 278.61056508098056,
        "RAAN(deg)": 79.95901716387965,
        "Satellite Name": "Starlink Shell 1 366",
        "Satellite Number": 366,
        "Semi-Major Axis(m)": 6931778.249405717,
        "Time(s)": 790
    },
    {
        "Altitude(m)": 571466.6389795006,
        "Argument of Periapsis(deg)": 0.02788627836089895,
        "Eccentricity": 0.0,
        "Inclination(deg)": 53.0,
        "Latitude(deg)": -52.17575766666907,
        "Longitude(deg)": -98.22041944958583,
        "Mean Anomaly(deg)": 279.2373962845372,
        "RAAN(deg)": 79.95849839380217,
        "Satellite Name": "Starlink Shell 1 366",
        "Satellite Number": 366,
        "Semi-Major Axis(m)": 6931778.249405717,
        "Time(s)": 800
    },
    {
        "Altitude(m)": 571414.2180983712,
        "Argument of Periapsis(deg)": 0.02823485684041019,
        "Eccentricity": 0.0,
        "Inclination(deg)": 53.0,
        "Latitude(deg)": -52.04129909342493,
        "Longitude(deg)": -97.271063798561,
        "Mean Anomaly(deg)": 279.86422748809395,
        "RAAN(deg)": 79.9579796237247,
        "Satellite Name": "Starlink Shell 1 366",
        "Satellite Number": 366,
        "Semi-Major Axis(m)": 6931778.249405717,
        "Time(s)": 810
    },
    {
        "Altitude(m)": 571358.4875431451,
        "Argument of Periapsis(deg)": 0.028583435319921423,
        "Eccentricity": 0.0,
        "Inclination(deg)": 53.0,
        "Latitude(deg)": -51.898562906774686,
        "Longitude(deg)": -96.32780567000435,
        "Mean Anomaly(deg)": -79.5089413083493,
        "RAAN(deg)": 79.95746085364723,
        "Satellite Name": "Starlink Shell 1 366",
        "Satellite Number": 366,
        "Semi-Major Axis(m)": 6931778.249405717,
        "Time(s)": 820
    },
    {
        "Altitude(m)": 571299.4695077456,
        "Argument of Periapsis(deg)": 0.028932013799432665,
        "Eccentricity": 0.0,
        "Inclination(deg)": 53.0,
        "Latitude(deg)": -51.7476425831129,
        "Longitude(deg)": -95.39093348219973,
        "Mean Anomaly(deg)": -78.88211010479264,
        "RAAN(deg)": 79.95694208356976,
        "Satellite Name": "Starlink Shell 1 366",
        "Satellite Number": 366,
        "Semi-Major Axis(m)": 6931778.249405717,
        "Time(s)": 830
    },
    {
        "Altitude(m)": 571237.1874920416,
        "Argument of Periapsis(deg)": 0.029280592278943897,
        "Eccentricity": 0.0,
        "Inclination(deg)": 53.0,
        "Latitude(deg)": -51.5886354593335,
        "Longitude(deg)": -94.46072004942988,
        "Mean Anomaly(deg)": -78.25527890123594,
        "RAAN(deg)": 79.95642331349228,
        "Satellite Name": "Starlink Shell 1 366",
        "Satellite Number": 366,
        "Semi-Major Axis(m)": 6931778.249405717,
        "Time(s)": 840
    },
    {
        "Altitude(m)": 571171.666291644,
        "Argument of Periapsis(deg)": 0.029629170758455132,
        "Eccentricity": 0.0,
        "Inclination(deg)": 53.0,
        "Latitude(deg)": -51.42164245359212,
        "Longitude(deg)": -93.53742180767205,
        "Mean Anomaly(deg)": -77.62844769767918,
        "RAAN(deg)": 79.95590454341482,
        "Satellite Name": "Starlink Shell 1 366",
        "Satellite Number": 366,
        "Semi-Major Axis(m)": 6931778.249405717,
        "Time(s)": 850
    },
    {
        "Altitude(m)": 571102.9319871617,
        "Argument of Periapsis(deg)": 0.02997774923796637,
        "Eccentricity": 0.0,
        "Inclination(deg)": 53.0,
        "Latitude(deg)": -51.24676778417482,
        "Longitude(deg)": -92.62127980277054,
        "Mean Anomaly(deg)": -77.00161649412253,
        "RAAN(deg)": 79.95538577333734,
        "Satellite Name": "Starlink Shell 1 366",
        "Satellite Number": 366,
        "Semi-Major Axis(m)": 6931778.249405717,
        "Time(s)": 860
    },
    {
        "Altitude(m)": 571031.0119329031,
        "Argument of Periapsis(deg)": 0.030326327717477602,
        "Eccentricity": 0.0,
        "Inclination(deg)": 53.0,
        "Latitude(deg)": -51.06411868805903,
        "Longitude(deg)": -91.71251823593786,
        "Mean Anomaly(deg)": -76.37478529056575,
        "RAAN(deg)": 79.95486700325986,
        "Satellite Name": "Starlink Shell 1 366",
        "Satellite Number": 366,
        "Semi-Major Axis(m)": 6931778.249405717,
        "Time(s)": 870
    },
    {
        "Altitude(m)": 570955.9347450056,
        "Argument of Periapsis(deg)": 0.030674906196988847,
        "Eccentricity": 0.0,
        "Inclination(deg)": 53.0,
        "Latitude(deg)": -50.87380514066678,
        "Longitude(deg)": -90.81134560622843,
        "Mean Anomaly(deg)": -75.74795408700906,
        "RAAN(deg)": 79.9543482331824,
        "Satellite Name": "Starlink Shell 1 366",
        "Satellite Number": 366,
        "Semi-Major Axis(m)": 6931778.249405717,
        "Time(s)": 880
    },
    {
        "Altitude(m)": 570877.7302890071,
        "Argument of Periapsis(deg)": 0.031023484676500086,
        "Eccentricity": 0.0,
        "Inclination(deg)": 53.0,
        "Latitude(deg)": -50.67593957821886,
        "Longitude(deg)": -89.91795424377145,
        "Mean Anomaly(deg)": -75.12112288345234,
        "RAAN(deg)": 79.95382946310492,
        "Satellite Name": "Starlink Shell 1 366",
        "Satellite Number": 366,
        "Semi-Major Axis(m)": 6931778.249405717,
        "Time(s)": 890
    },
    {
        "Altitude(m)": 570796.4296668958,
        "Argument of Periapsis(deg)": 0.03137206315601132,
        "Eccentricity": 0.0,
        "Inclination(deg)": 53.0,
        "Latitude(deg)": -50.470636623997834,
        "Longitude(deg)": -89.03251991055573,
        "Mean Anomaly(deg)": -74.49429167989557,
        "RAAN(deg)": 79.95331069302745,
        "Satellite Name": "Starlink Shell 1 366",
        "Satellite Number": 366,
        "Semi-Major Axis(m)": 6931778.249405717,
        "Time(s)": 900
    },
    {
        "Altitude(m)": 570712.0652036002,
        "Argument of Periapsis(deg)": 0.03172064163552255,
        "Eccentricity": 0.0,
        "Inclination(deg)": 53.0,
        "Latitude(deg)": -50.25801281971807,
        "Longitude(deg)": -88.15520297712591,
        "Mean Anomaly(deg)": -73.86746047633893,
        "RAAN(deg)": 79.95279192294998,
        "Satellite Name": "Starlink Shell 1 366",
        "Satellite Number": 366,
        "Semi-Major Axis(m)": 6931778.249405717,
        "Time(s)": 910
    },
    {
        "Altitude(m)": 570624.6704329416,
        "Argument of Periapsis(deg)": 0.0320692201150338,
        "Eccentricity": 0.0,
        "Inclination(deg)": 53.0,
        "Latitude(deg)": -50.03818636308973,
        "Longitude(deg)": -87.28614814466192,
        "Mean Anomaly(deg)": -73.24062927278216,
        "RAAN(deg)": 79.95227315287251,
        "Satellite Name": "Starlink Shell 1 366",
        "Satellite Number": 366,
        "Semi-Major Axis(m)": 6931778.249405717,
        "Time(s)": 920
    },
    {
        "Altitude(m)": 570534.2800830528,
        "Argument of Periapsis(deg)": 0.032417798594545036,
        "Eccentricity": 0.0,
        "Inclination(deg)": 53.0,
        "Latitude(deg)": -49.81127685254946,
        "Longitude(deg)": -86.4254842203745,
        "Mean Anomaly(deg)": -72.61379806922551,
        "RAAN(deg)": 79.95175438279503,
        "Satellite Name": "Starlink Shell 1 366",
        "Satellite Number": 366,
        "Semi-Major Axis(m)": 6931778.249405717,
        "Time(s)": 930
    },
    {
        "Altitude(m)": 570440.9300612891,
        "Argument of Periapsis(deg)": 0.03276637707405627,
        "Eccentricity": 0.0,
        "Inclination(deg)": 53.0,
        "Latitude(deg)": -49.57740504001112,
        "Longitude(deg)": -85.57332545402961,
        "Mean Anomaly(deg)": -71.98696686566873,
        "RAAN(deg)": 79.95123561271755,
        "Satellite Name": "Starlink Shell 1 366",
        "Satellite Number": 366,
        "Semi-Major Axis(m)": 6931778.249405717,
        "Time(s)": 940
    }
]